[{"OBJECT_NAME":"GENMAT-1","OBJECT_ID":"2023-174W","EPOCH":"2026-03-09T18:03:23.351040","MEAN_MOTION":15.32594666,"ECCENTRICITY":0.00074416,"INCLINATION":97.3728,"RA_OF_ASC_NODE":146.8236,"ARG_OF_PERICENTER":169.2515,"MEAN_ANOMALY":190.8888,"EPHEMERIS_TYPE":0,"CLASSIFICATION_TYPE":"U","NORAD_CAT_ID":58276,"ELEMENT_SET_NO":999,"REV_AT_EPOCH":12973,"BSTAR":0.00042157222,"MEAN_MOTION_DOT":0.0001321,"MEAN_MOTION_DDOT":0},{"OBJECT_NAME":"STARLINK-31980","OBJECT_ID":"2024-107T","EPOCH":"2026-03-09T10:03:21.536928","MEAN_MOTION":15.30198645,"ECCENTRICITY":0.00012067,"INCLINATION":53.1595,"RA_OF_ASC_NODE":66.8814,"ARG_OF_PERICENTER":91.0313,"MEAN_ANOMALY":269.0826,"EPHEMERIS_TYPE":0,"CLASSIFICATION_TYPE":"U","NORAD_CAT_ID":59962,"ELEMENT_SET_NO":999,"REV_AT_EPOCH":9975,"BSTAR":4.4001583e-5,"MEAN_MOTION_DOT":9.44e-6,"MEAN_MOTION_DDOT":0}]
